XRISM                   
1 57800U 23137A   24171.88773899  .00004442  00000+0  33099-3 0  9990
2 57800  31.0045 355.4249 0009509 236.7439 123.2286 15.01252977 43015
